<gpx>
<wpt lat="28.580100" lon="77.317960">  </wpt>
<wpt lat="28.580068" lon="77.317991">  </wpt>
<wpt lat="28.580004" lon="77.318052">  </wpt>
<wpt lat="28.579909" lon="77.318144">  </wpt>
<wpt lat="28.579781" lon="77.318266">  </wpt>
<wpt lat="28.579657" lon="77.318386">  </wpt>
<wpt lat="28.579536" lon="77.318502">  </wpt>
<wpt lat="28.579417" lon="77.318615">  </wpt>
<wpt lat="28.579303" lon="77.318725">  </wpt>
<wpt lat="28.579292" lon="77.318917">  </wpt>
<wpt lat="28.579386" lon="77.319191">  </wpt>
<wpt lat="28.579584" lon="77.319546">  </wpt>
<wpt lat="28.579886" lon="77.319984">  </wpt>
<wpt lat="28.580087" lon="77.320337">  </wpt>
<wpt lat="28.580188" lon="77.320607">  </wpt>
<wpt lat="28.580186" lon="77.320794">  </wpt>
<wpt lat="28.580084" lon="77.320896">  </wpt>
<wpt lat="28.579980" lon="77.320998">  </wpt>
<wpt lat="28.579875" lon="77.321099">  </wpt>
<wpt lat="28.579769" lon="77.321200">  </wpt>
<wpt lat="28.579661" lon="77.321300">  </wpt>
<wpt lat="28.579594" lon="77.321396">  </wpt>
<wpt lat="28.579566" lon="77.321489">  </wpt>
<wpt lat="28.579579" lon="77.321577">  </wpt>
<wpt lat="28.579631" lon="77.321662">  </wpt>
<wpt lat="28.579697" lon="77.321762">  </wpt>
<wpt lat="28.579777" lon="77.321877">  </wpt>
<wpt lat="28.579871" lon="77.322007">  </wpt>
<wpt lat="28.579979" lon="77.322153">  </wpt>
<wpt lat="28.580104" lon="77.322324">  </wpt>
<wpt lat="28.580246" lon="77.322521">  </wpt>
<wpt lat="28.580406" lon="77.322745">  </wpt>
<wpt lat="28.580584" lon="77.322995">  </wpt>
<wpt lat="28.580737" lon="77.323207">  </wpt>
<wpt lat="28.580866" lon="77.323381">  </wpt>
<wpt lat="28.580970" lon="77.323516">  </wpt>
<wpt lat="28.581050" lon="77.323614">  </wpt>
<wpt lat="28.581142" lon="77.323730">  </wpt>
<wpt lat="28.581246" lon="77.323865">  </wpt>
<wpt lat="28.581361" lon="77.324019">  </wpt>
<wpt lat="28.581489" lon="77.324191">  </wpt>
<wpt lat="28.581599" lon="77.324341">  </wpt>
<wpt lat="28.581691" lon="77.324467">  </wpt>
<wpt lat="28.581766" lon="77.324570">  </wpt>
<wpt lat="28.581824" lon="77.324650">  </wpt>
<wpt lat="28.581882" lon="77.324733">  </wpt>
<wpt lat="28.581941" lon="77.324817">  </wpt>
<wpt lat="28.582000" lon="77.324905">  </wpt>
<wpt lat="28.582060" lon="77.324995">  </wpt>
<wpt lat="28.582168" lon="77.325145">  </wpt>
<wpt lat="28.582322" lon="77.325355">  </wpt>
<wpt lat="28.582525" lon="77.325625">  </wpt>
<wpt lat="28.582775" lon="77.325955">  </wpt>
<wpt lat="28.582977" lon="77.326227">  </wpt>
<wpt lat="28.583132" lon="77.326441">  </wpt>
<wpt lat="28.583240" lon="77.326596">  </wpt>
<wpt lat="28.583300" lon="77.326694">  </wpt>
<wpt lat="28.583370" lon="77.326797">  </wpt>
<wpt lat="28.583450" lon="77.326906">  </wpt>
<wpt lat="28.583540" lon="77.327020">  </wpt>
<wpt lat="28.583640" lon="77.327140">  </wpt>
<wpt lat="28.583738" lon="77.327256">  </wpt>
<wpt lat="28.583834" lon="77.327369">  </wpt>
<wpt lat="28.583929" lon="77.327478">  </wpt>
<wpt lat="28.584021" lon="77.327583">  </wpt>
<wpt lat="28.584116" lon="77.327699">  </wpt>
<wpt lat="28.584214" lon="77.327828">  </wpt>
<wpt lat="28.584314" lon="77.327969">  </wpt>
<wpt lat="28.584416" lon="77.328121">  </wpt>
<wpt lat="28.584508" lon="77.328260">  </wpt>
<wpt lat="28.584589" lon="77.328385">  </wpt>
<wpt lat="28.584660" lon="77.328496">  </wpt>
<wpt lat="28.584720" lon="77.328594">  </wpt>
<wpt lat="28.584798" lon="77.328711">  </wpt>
<wpt lat="28.584892" lon="77.328849">  </wpt>
<wpt lat="28.585005" lon="77.329006">  </wpt>
<wpt lat="28.585135" lon="77.329184">  </wpt>
<wpt lat="28.585271" lon="77.329368">  </wpt>
<wpt lat="28.585414" lon="77.329559">  </wpt>
<wpt lat="28.585562" lon="77.329757">  </wpt>
<wpt lat="28.585718" lon="77.329963">  </wpt>
<wpt lat="28.585879" lon="77.330177">  </wpt>
<wpt lat="28.586048" lon="77.330401">  </wpt>
<wpt lat="28.586224" lon="77.330634">  </wpt>
<wpt lat="28.586406" lon="77.330876">  </wpt>
<wpt lat="28.586555" lon="77.331076">  </wpt>
<wpt lat="28.586670" lon="77.331234">  </wpt>
<wpt lat="28.586751" lon="77.331349">  </wpt>
<wpt lat="28.586799" lon="77.331421">  </wpt>
<wpt lat="28.586862" lon="77.331510">  </wpt>
<wpt lat="28.586941" lon="77.331615">  </wpt>
<wpt lat="28.587035" lon="77.331736">  </wpt>
<wpt lat="28.587145" lon="77.331874">  </wpt>
<wpt lat="28.587253" lon="77.332011">  </wpt>
<wpt lat="28.587359" lon="77.332147">  </wpt>
<wpt lat="28.587464" lon="77.332283">  </wpt>
<wpt lat="28.587566" lon="77.332418">  </wpt>
<wpt lat="28.587676" lon="77.332563">  </wpt>
<wpt lat="28.587792" lon="77.332719">  </wpt>
<wpt lat="28.587915" lon="77.332886">  </wpt>
<wpt lat="28.588045" lon="77.333064">  </wpt>
<wpt lat="28.588169" lon="77.333230">  </wpt>
<wpt lat="28.588286" lon="77.333385">  </wpt>
<wpt lat="28.588397" lon="77.333529">  </wpt>
<wpt lat="28.588503" lon="77.333661">  </wpt>
<wpt lat="28.588597" lon="77.333784">  </wpt>
<wpt lat="28.588681" lon="77.333896">  </wpt>
<wpt lat="28.588754" lon="77.333999">  </wpt>
<wpt lat="28.588816" lon="77.334091">  </wpt>
<wpt lat="28.588881" lon="77.334186">  </wpt>
<wpt lat="28.588949" lon="77.334284">  </wpt>
<wpt lat="28.589019" lon="77.334384">  </wpt>
<wpt lat="28.589091" lon="77.334486">  </wpt>
<wpt lat="28.589184" lon="77.334616">  </wpt>
<wpt lat="28.589296" lon="77.334774">  </wpt>
<wpt lat="28.589429" lon="77.334959">  </wpt>
<wpt lat="28.589581" lon="77.335171">  </wpt>
<wpt lat="28.589718" lon="77.335361">  </wpt>
<wpt lat="28.589839" lon="77.335529">  </wpt>
<wpt lat="28.589945" lon="77.335674">  </wpt>
<wpt lat="28.590035" lon="77.335796">  </wpt>
<wpt lat="28.590119" lon="77.335898">  </wpt>
<wpt lat="28.590198" lon="77.335977">  </wpt>
<wpt lat="28.590271" lon="77.336036">  </wpt>
<wpt lat="28.590339" lon="77.336074">  </wpt>
<wpt lat="28.590406" lon="77.336091">  </wpt>
<wpt lat="28.590472" lon="77.336087">  </wpt>
<wpt lat="28.590537" lon="77.336062">  </wpt>
<wpt lat="28.590603" lon="77.336017">  </wpt>
<wpt lat="28.590669" lon="77.335969">  </wpt>
<wpt lat="28.590736" lon="77.335918">  </wpt>
<wpt lat="28.590805" lon="77.335864">  </wpt>
<wpt lat="28.590875" lon="77.335806">  </wpt>
<wpt lat="28.590957" lon="77.335734">  </wpt>
<wpt lat="28.591052" lon="77.335646">  </wpt>
<wpt lat="28.591160" lon="77.335544">  </wpt>
<wpt lat="28.591280" lon="77.335426">  </wpt>
<wpt lat="28.591387" lon="77.335323">  </wpt>
<wpt lat="28.591481" lon="77.335233">  </wpt>
<wpt lat="28.591561" lon="77.335156">  </wpt>
<wpt lat="28.591629" lon="77.335094">  </wpt>
<wpt lat="28.591711" lon="77.335017">  </wpt>
<wpt lat="28.591807" lon="77.334927">  </wpt>
<wpt lat="28.591918" lon="77.334824">  </wpt>
<wpt lat="28.592042" lon="77.334706">  </wpt>
<wpt lat="28.592161" lon="77.334595">  </wpt>
<wpt lat="28.592272" lon="77.334490">  </wpt>
<wpt lat="28.592376" lon="77.334391">  </wpt>
<wpt lat="28.592474" lon="77.334299">  </wpt>
<wpt lat="28.592571" lon="77.334207">  </wpt>
<wpt lat="28.592669" lon="77.334116">  </wpt>
<wpt lat="28.592766" lon="77.334025">  </wpt>
<wpt lat="28.592864" lon="77.333935">  </wpt>
<wpt lat="28.592961" lon="77.333844">  </wpt>
<wpt lat="28.593057" lon="77.333753">  </wpt>
<wpt lat="28.593153" lon="77.333661">  </wpt>
<wpt lat="28.593247" lon="77.333569">  </wpt>
<wpt lat="28.593336" lon="77.333483">  </wpt>
<wpt lat="28.593417" lon="77.333403">  </wpt>
<wpt lat="28.593491" lon="77.333329">  </wpt>
<wpt lat="28.593559" lon="77.333261">  </wpt>
<wpt lat="28.593628" lon="77.333195">  </wpt>
<wpt lat="28.593699" lon="77.333130">  </wpt>
<wpt lat="28.593773" lon="77.333066">  </wpt>
<wpt lat="28.593847" lon="77.333004">  </wpt>
<wpt lat="28.593919" lon="77.332941">  </wpt>
<wpt lat="28.593988" lon="77.332877">  </wpt>
<wpt lat="28.594054" lon="77.332812">  </wpt>
<wpt lat="28.594116" lon="77.332748">  </wpt>
<wpt lat="28.594177" lon="77.332686">  </wpt>
<wpt lat="28.594236" lon="77.332629">  </wpt>
<wpt lat="28.594293" lon="77.332575">  </wpt>
<wpt lat="28.594347" lon="77.332525">  </wpt>
<wpt lat="28.594403" lon="77.332474">  </wpt>
<wpt lat="28.594458" lon="77.332423">  </wpt>
<wpt lat="28.594513" lon="77.332371">  </wpt>
<wpt lat="28.594568" lon="77.332319">  </wpt>
<wpt lat="28.594631" lon="77.332258">  </wpt>
<wpt lat="28.594702" lon="77.332189">  </wpt>
<wpt lat="28.594781" lon="77.332112">  </wpt>
<wpt lat="28.594869" lon="77.332028">  </wpt>
<wpt lat="28.594956" lon="77.331944">  </wpt>
<wpt lat="28.595042" lon="77.331863">  </wpt>
<wpt lat="28.595127" lon="77.331784">  </wpt>
<wpt lat="28.595212" lon="77.331706">  </wpt>
<wpt lat="28.595306" lon="77.331617">  </wpt>
<wpt lat="28.595409" lon="77.331516">  </wpt>
<wpt lat="28.595520" lon="77.331403">  </wpt>
<wpt lat="28.595640" lon="77.331277">  </wpt>
<wpt lat="28.595751" lon="77.331163">  </wpt>
<wpt lat="28.595854" lon="77.331058">  </wpt>
<wpt lat="28.595948" lon="77.330962">  </wpt>
<wpt lat="28.596033" lon="77.330877">  </wpt>
<wpt lat="28.596117" lon="77.330795">  </wpt>
<wpt lat="28.596201" lon="77.330715">  </wpt>
<wpt lat="28.596284" lon="77.330637">  </wpt>
<wpt lat="28.596366" lon="77.330562">  </wpt>
<wpt lat="28.596471" lon="77.330469">  </wpt>
<wpt lat="28.596597" lon="77.330356">  </wpt>
<wpt lat="28.596745" lon="77.330225">  </wpt>
<wpt lat="28.596915" lon="77.330075">  </wpt>
<wpt lat="28.597081" lon="77.329927">  </wpt>
<wpt lat="28.597242" lon="77.329782">  </wpt>
<wpt lat="28.597399" lon="77.329640">  </wpt>
<wpt lat="28.597551" lon="77.329500">  </wpt>
<wpt lat="28.597729" lon="77.329339">  </wpt>
<wpt lat="28.597933" lon="77.329158">  </wpt>
<wpt lat="28.598163" lon="77.328956">  </wpt>
<wpt lat="28.598418" lon="77.328734">  </wpt>
<wpt lat="28.598632" lon="77.328548">  </wpt>
<wpt lat="28.598806" lon="77.328399">  </wpt>
<wpt lat="28.598939" lon="77.328288">  </wpt>
<wpt lat="28.599031" lon="77.328213">  </wpt>
<wpt lat="28.599138" lon="77.328125">  </wpt>
<wpt lat="28.599258" lon="77.328025">  </wpt>
<wpt lat="28.599391" lon="77.327913">  </wpt>
<wpt lat="28.599539" lon="77.327787">  </wpt>
<wpt lat="28.599681" lon="77.327668">  </wpt>
<wpt lat="28.599817" lon="77.327554">  </wpt>
<wpt lat="28.599947" lon="77.327446">  </wpt>
<wpt lat="28.600073" lon="77.327344">  </wpt>
<wpt lat="28.600192" lon="77.327246">  </wpt>
<wpt lat="28.600306" lon="77.327152">  </wpt>
<wpt lat="28.600414" lon="77.327062">  </wpt>
<wpt lat="28.600516" lon="77.326977">  </wpt>
<wpt lat="28.600616" lon="77.326895">  </wpt>
<wpt lat="28.600712" lon="77.326815">  </wpt>
<wpt lat="28.600805" lon="77.326737">  </wpt>
<wpt lat="28.600895" lon="77.326662">  </wpt>
<wpt lat="28.601026" lon="77.326688">  </wpt>
<wpt lat="28.601197" lon="77.326814">  </wpt>
<wpt lat="28.601409" lon="77.327041">  </wpt>
<wpt lat="28.601661" lon="77.327369">  </wpt>
<wpt lat="28.601874" lon="77.327651">  </wpt>
<wpt lat="28.602048" lon="77.327887">  </wpt>
<wpt lat="28.602182" lon="77.328078">  </wpt>
<wpt lat="28.602277" lon="77.328222">  </wpt>
<wpt lat="28.602381" lon="77.328379">  </wpt>
<wpt lat="28.602494" lon="77.328548">  </wpt>
<wpt lat="28.602615" lon="77.328729">  </wpt>
<wpt lat="28.602745" lon="77.328921">  </wpt>
<wpt lat="28.602870" lon="77.329106">  </wpt>
<wpt lat="28.602990" lon="77.329284">  </wpt>
<wpt lat="28.603105" lon="77.329454">  </wpt>
<wpt lat="28.603215" lon="77.329616">  </wpt>
<wpt lat="28.603319" lon="77.329720">  </wpt>
<wpt lat="28.603418" lon="77.329765">  </wpt>
<wpt lat="28.603511" lon="77.329751">  </wpt>
<wpt lat="28.603599" lon="77.329679">  </wpt>
<wpt lat="28.603690" lon="77.329604">  </wpt>
<wpt lat="28.603785" lon="77.329528">  </wpt>
<wpt lat="28.603884" lon="77.329450">  </wpt>
<wpt lat="28.603986" lon="77.329370">  </wpt>
<wpt lat="28.604078" lon="77.329298">  </wpt>
<wpt lat="28.604159" lon="77.329234">  </wpt>
<wpt lat="28.604230" lon="77.329179">  </wpt>
<wpt lat="28.604290" lon="77.329131">  </wpt>
<wpt lat="28.604389" lon="77.329053">  </wpt>
<wpt lat="28.604528" lon="77.328944">  </wpt>
<wpt lat="28.604706" lon="77.328805">  </wpt>
<wpt lat="28.604924" lon="77.328635">  </wpt>
<wpt lat="28.605116" lon="77.328487">  </wpt>
<wpt lat="28.605282" lon="77.328361">  </wpt>
<wpt lat="28.605422" lon="77.328256">  </wpt>
<wpt lat="28.605537" lon="77.328174">  </wpt>
<wpt lat="28.605649" lon="77.328096">  </wpt>
<wpt lat="28.605758" lon="77.328022">  </wpt>
<wpt lat="28.605864" lon="77.327952">  </wpt>
<wpt lat="28.605966" lon="77.327888">  </wpt>
<wpt lat="28.606063" lon="77.327831">  </wpt>
<wpt lat="28.606153" lon="77.327782">  </wpt>
<wpt lat="28.606236" lon="77.327741">  </wpt>
<wpt lat="28.606314" lon="77.327709">  </wpt>
<wpt lat="28.606400" lon="77.327677">  </wpt>
<wpt lat="28.606495" lon="77.327647">  </wpt>
<wpt lat="28.606599" lon="77.327619">  </wpt>
<wpt lat="28.606711" lon="77.327591">  </wpt>
<wpt lat="28.606829" lon="77.327562">  </wpt>
<wpt lat="28.606951" lon="77.327531">  </wpt>
<wpt lat="28.607079" lon="77.327498">  </wpt>
<wpt lat="28.607211" lon="77.327463">  </wpt>
<wpt lat="28.607336" lon="77.327430">  </wpt>
<wpt lat="28.607454" lon="77.327400">  </wpt>
<wpt lat="28.607564" lon="77.327372">  </wpt>
<wpt lat="28.607666" lon="77.327347">  </wpt>
<wpt lat="28.607773" lon="77.327322">  </wpt>
<wpt lat="28.607884" lon="77.327296">  </wpt>
<wpt lat="28.608000" lon="77.327269">  </wpt>
<wpt lat="28.608120" lon="77.327241">  </wpt>
<wpt lat="28.608241" lon="77.327216">  </wpt>
<wpt lat="28.608362" lon="77.327194">  </wpt>
<wpt lat="28.608484" lon="77.327174">  </wpt>
<wpt lat="28.608606" lon="77.327156">  </wpt>
<wpt lat="28.608704" lon="77.327124">  </wpt>
<wpt lat="28.608778" lon="77.327078">  </wpt>
<wpt lat="28.608828" lon="77.327017">  </wpt>
<wpt lat="28.608852" lon="77.326943">  </wpt>
<wpt lat="28.608873" lon="77.326866">  </wpt>
<wpt lat="28.608889" lon="77.326789">  </wpt>
<wpt lat="28.608901" lon="77.326710">  </wpt>
<wpt lat="28.608909" lon="77.326630">  </wpt>
<wpt lat="28.608892" lon="77.326558">  </wpt>
<wpt lat="28.608851" lon="77.326493">  </wpt>
<wpt lat="28.608785" lon="77.326435">  </wpt>
<wpt lat="28.608695" lon="77.326385">  </wpt>
<wpt lat="28.608617" lon="77.326342">  </wpt>
<wpt lat="28.608551" lon="77.326306">  </wpt>
<wpt lat="28.608496" lon="77.326276">  </wpt>
<wpt lat="28.608454" lon="77.326254">  </wpt>
</gpx>
