<gpx>
<wpt lat="37.330540" lon="-122.029760">  </wpt>
<wpt lat="37.330540" lon="-122.029782">  </wpt>
<wpt lat="37.330540" lon="-122.029826">  </wpt>
<wpt lat="37.330540" lon="-122.029891">  </wpt>
<wpt lat="37.330540" lon="-122.029979">  </wpt>
<wpt lat="37.330539" lon="-122.030068">  </wpt>
<wpt lat="37.330538" lon="-122.030159">  </wpt>
<wpt lat="37.330536" lon="-122.030252">  </wpt>
<wpt lat="37.330534" lon="-122.030348">  </wpt>
<wpt lat="37.330524" lon="-122.030448">  </wpt>
<wpt lat="37.330508" lon="-122.030554">  </wpt>
<wpt lat="37.330485" lon="-122.030666">  </wpt>
<wpt lat="37.330455" lon="-122.030784">  </wpt>
<wpt lat="37.330425" lon="-122.030899">  </wpt>
<wpt lat="37.330395" lon="-122.031011">  </wpt>
<wpt lat="37.330365" lon="-122.031121">  </wpt>
<wpt lat="37.330335" lon="-122.031229">  </wpt>
<wpt lat="37.330309" lon="-122.031359">  </wpt>
<wpt lat="37.330286" lon="-122.031511">  </wpt>
<wpt lat="37.330267" lon="-122.031686">  </wpt>
<wpt lat="37.330253" lon="-122.031884">  </wpt>
<wpt lat="37.330260" lon="-122.032032">  </wpt>
<wpt lat="37.330290" lon="-122.032131">  </wpt>
<wpt lat="37.330343" lon="-122.032180">  </wpt>
<wpt lat="37.330418" lon="-122.032180">  </wpt>
<wpt lat="37.330497" lon="-122.032179">  </wpt>
<wpt lat="37.330582" lon="-122.032178">  </wpt>
<wpt lat="37.330672" lon="-122.032176">  </wpt>
<wpt lat="37.330768" lon="-122.032174">  </wpt>
<wpt lat="37.330876" lon="-122.032172">  </wpt>
<wpt lat="37.330999" lon="-122.032171">  </wpt>
<wpt lat="37.331135" lon="-122.032170">  </wpt>
<wpt lat="37.331285" lon="-122.032170">  </wpt>
<wpt lat="37.331441" lon="-122.032170">  </wpt>
<wpt lat="37.331604" lon="-122.032170">  </wpt>
<wpt lat="37.331772" lon="-122.032170">  </wpt>
<wpt lat="37.331948" lon="-122.032170">  </wpt>
<wpt lat="37.332111" lon="-122.032171">  </wpt>
<wpt lat="37.332262" lon="-122.032172">  </wpt>
<wpt lat="37.332401" lon="-122.032174">  </wpt>
<wpt lat="37.332529" lon="-122.032176">  </wpt>
<wpt lat="37.332646" lon="-122.032178">  </wpt>
<wpt lat="37.332754" lon="-122.032179">  </wpt>
<wpt lat="37.332851" lon="-122.032180">  </wpt>
<wpt lat="37.332939" lon="-122.032180">  </wpt>
<wpt lat="37.333044" lon="-122.032181">  </wpt>
<wpt lat="37.333166" lon="-122.032182">  </wpt>
<wpt lat="37.333306" lon="-122.032184">  </wpt>
<wpt lat="37.333464" lon="-122.032186">  </wpt>
<wpt lat="37.333618" lon="-122.032188">  </wpt>
<wpt lat="37.333768" lon="-122.032189">  </wpt>
<wpt lat="37.333914" lon="-122.032190">  </wpt>
<wpt lat="37.334056" lon="-122.032190">  </wpt>
<wpt lat="37.334213" lon="-122.032191">  </wpt>
<wpt lat="37.334384" lon="-122.032192">  </wpt>
<wpt lat="37.334570" lon="-122.032194">  </wpt>
<wpt lat="37.334770" lon="-122.032196">  </wpt>
<wpt lat="37.334914" lon="-122.032233">  </wpt>
<wpt lat="37.335003" lon="-122.032303">  </wpt>
<wpt lat="37.335036" lon="-122.032406">  </wpt>
<wpt lat="37.335014" lon="-122.032544">  </wpt>
<wpt lat="37.334989" lon="-122.032684">  </wpt>
<wpt lat="37.334963" lon="-122.032828">  </wpt>
<wpt lat="37.334935" lon="-122.032975">  </wpt>
<wpt lat="37.334905" lon="-122.033125">  </wpt>
<wpt lat="37.334878" lon="-122.033262">  </wpt>
<wpt lat="37.334852" lon="-122.033386">  </wpt>
<wpt lat="37.334830" lon="-122.033496">  </wpt>
<wpt lat="37.334810" lon="-122.033594">  </wpt>
<wpt lat="37.334789" lon="-122.033694">  </wpt>
<wpt lat="37.334768" lon="-122.033798">  </wpt>
<wpt lat="37.334746" lon="-122.033905">  </wpt>
<wpt lat="37.334724" lon="-122.034015">  </wpt>
<wpt lat="37.334704" lon="-122.034127">  </wpt>
<wpt lat="37.334686" lon="-122.034241">  </wpt>
<wpt lat="37.334671" lon="-122.034356">  </wpt>
<wpt lat="37.334659" lon="-122.034474">  </wpt>
<wpt lat="37.334647" lon="-122.034586">  </wpt>
<wpt lat="37.334637" lon="-122.034694">  </wpt>
<wpt lat="37.334629" lon="-122.034796">  </wpt>
<wpt lat="37.334621" lon="-122.034894">  </wpt>
<wpt lat="37.334614" lon="-122.035009">  </wpt>
<wpt lat="37.334606" lon="-122.035143">  </wpt>
<wpt lat="37.334599" lon="-122.035295">  </wpt>
<wpt lat="37.334591" lon="-122.035465">  </wpt>
<wpt lat="37.334579" lon="-122.035614">  </wpt>
<wpt lat="37.334561" lon="-122.035741">  </wpt>
<wpt lat="37.334539" lon="-122.035848">  </wpt>
<wpt lat="37.334511" lon="-122.035933">  </wpt>
<wpt lat="37.334491" lon="-122.036054">  </wpt>
<wpt lat="37.334477" lon="-122.036211">  </wpt>
<wpt lat="37.334470" lon="-122.036405">  </wpt>
<wpt lat="37.334470" lon="-122.036635">  </wpt>
<wpt lat="37.334469" lon="-122.036855">  </wpt>
<wpt lat="37.334468" lon="-122.037065">  </wpt>
<wpt lat="37.334466" lon="-122.037265">  </wpt>
<wpt lat="37.334464" lon="-122.037455">  </wpt>
<wpt lat="37.334460" lon="-122.037730">  </wpt>
<wpt lat="37.334455" lon="-122.038090">  </wpt>
<wpt lat="37.334449" lon="-122.038535">  </wpt>
<wpt lat="37.334441" lon="-122.039065">  </wpt>
<wpt lat="37.334435" lon="-122.039505">  </wpt>
<wpt lat="37.334430" lon="-122.039855">  </wpt>
<wpt lat="37.334426" lon="-122.040115">  </wpt>
<wpt lat="37.334424" lon="-122.040285">  </wpt>
<wpt lat="37.334421" lon="-122.040453">  </wpt>
<wpt lat="37.334419" lon="-122.040619">  </wpt>
<wpt lat="37.334416" lon="-122.040784">  </wpt>
<wpt lat="37.334414" lon="-122.040946">  </wpt>
<wpt lat="37.334412" lon="-122.041099">  </wpt>
<wpt lat="37.334411" lon="-122.041243">  </wpt>
<wpt lat="37.334410" lon="-122.041377">  </wpt>
<wpt lat="37.334410" lon="-122.041502">  </wpt>
<wpt lat="37.334410" lon="-122.041627">  </wpt>
<wpt lat="37.334410" lon="-122.041751">  </wpt>
<wpt lat="37.334410" lon="-122.041874">  </wpt>
<wpt lat="37.334410" lon="-122.041996">  </wpt>
<wpt lat="37.334410" lon="-122.042119">  </wpt>
<wpt lat="37.334410" lon="-122.042243">  </wpt>
<wpt lat="37.334410" lon="-122.042367">  </wpt>
<wpt lat="37.334410" lon="-122.042492">  </wpt>
<wpt lat="37.334410" lon="-122.042617">  </wpt>
<wpt lat="37.334410" lon="-122.042743">  </wpt>
<wpt lat="37.334410" lon="-122.042867">  </wpt>
<wpt lat="37.334410" lon="-122.042993">  </wpt>
<wpt lat="37.334410" lon="-122.043117">  </wpt>
<wpt lat="37.334410" lon="-122.043241">  </wpt>
<wpt lat="37.334410" lon="-122.043364">  </wpt>
<wpt lat="37.334410" lon="-122.043486">  </wpt>
<wpt lat="37.334410" lon="-122.043609">  </wpt>
<wpt lat="37.334410" lon="-122.043733">  </wpt>
<wpt lat="37.334410" lon="-122.043858">  </wpt>
<wpt lat="37.334410" lon="-122.043982">  </wpt>
<wpt lat="37.334411" lon="-122.044109">  </wpt>
<wpt lat="37.334412" lon="-122.044236">  </wpt>
<wpt lat="37.334414" lon="-122.044365">  </wpt>
<wpt lat="37.334416" lon="-122.044495">  </wpt>
<wpt lat="37.334418" lon="-122.044624">  </wpt>
<wpt lat="37.334419" lon="-122.044751">  </wpt>
<wpt lat="37.334420" lon="-122.044878">  </wpt>
<wpt lat="37.334420" lon="-122.045003">  </wpt>
<wpt lat="37.334419" lon="-122.045120">  </wpt>
<wpt lat="37.334418" lon="-122.045230">  </wpt>
<wpt lat="37.334416" lon="-122.045333">  </wpt>
<wpt lat="37.334414" lon="-122.045427">  </wpt>
<wpt lat="37.334411" lon="-122.045526">  </wpt>
<wpt lat="37.334409" lon="-122.045629">  </wpt>
<wpt lat="37.334406" lon="-122.045735">  </wpt>
<wpt lat="37.334404" lon="-122.045845">  </wpt>
<wpt lat="37.334400" lon="-122.045956">  </wpt>
<wpt lat="37.334395" lon="-122.046069">  </wpt>
<wpt lat="37.334389" lon="-122.046183">  </wpt>
<wpt lat="37.334381" lon="-122.046298">  </wpt>
<wpt lat="37.334374" lon="-122.046407">  </wpt>
<wpt lat="37.334366" lon="-122.046511">  </wpt>
<wpt lat="37.334359" lon="-122.046609">  </wpt>
<wpt lat="37.334351" lon="-122.046701">  </wpt>
<wpt lat="37.334342" lon="-122.046801">  </wpt>
<wpt lat="37.334331" lon="-122.046909">  </wpt>
<wpt lat="37.334317" lon="-122.047024">  </wpt>
<wpt lat="37.334302" lon="-122.047146">  </wpt>
<wpt lat="37.334287" lon="-122.047268">  </wpt>
<wpt lat="37.334271" lon="-122.047389">  </wpt>
<wpt lat="37.334254" lon="-122.047510">  </wpt>
<wpt lat="37.334236" lon="-122.047630">  </wpt>
<wpt lat="37.334218" lon="-122.047751">  </wpt>
<wpt lat="37.334199" lon="-122.047872">  </wpt>
<wpt lat="37.334180" lon="-122.047994">  </wpt>
<wpt lat="37.334160" lon="-122.048116">  </wpt>
<wpt lat="37.334139" lon="-122.048239">  </wpt>
<wpt lat="37.334118" lon="-122.048361">  </wpt>
<wpt lat="37.334096" lon="-122.048484">  </wpt>
<wpt lat="37.334074" lon="-122.048606">  </wpt>
<wpt lat="37.334051" lon="-122.048725">  </wpt>
<wpt lat="37.334027" lon="-122.048840">  </wpt>
<wpt lat="37.334003" lon="-122.048951">  </wpt>
<wpt lat="37.333977" lon="-122.049059">  </wpt>
<wpt lat="37.333953" lon="-122.049166">  </wpt>
<wpt lat="37.333929" lon="-122.049274">  </wpt>
<wpt lat="37.333906" lon="-122.049381">  </wpt>
<wpt lat="37.333884" lon="-122.049489">  </wpt>
<wpt lat="37.333868" lon="-122.049598">  </wpt>
<wpt lat="37.333859" lon="-122.049709">  </wpt>
<wpt lat="37.333858" lon="-122.049823">  </wpt>
<wpt lat="37.333863" lon="-122.049937">  </wpt>
<wpt lat="37.333859" lon="-122.050064">  </wpt>
<wpt lat="37.333848" lon="-122.050203">  </wpt>
<wpt lat="37.333829" lon="-122.050354">  </wpt>
<wpt lat="37.333801" lon="-122.050516">  </wpt>
<wpt lat="37.333766" lon="-122.050709">  </wpt>
<wpt lat="37.333724" lon="-122.050931">  </wpt>
<wpt lat="37.333674" lon="-122.051184">  </wpt>
<wpt lat="37.333616" lon="-122.051466">  </wpt>
<wpt lat="37.333568" lon="-122.051705">  </wpt>
<wpt lat="37.333528" lon="-122.051900">  </wpt>
<wpt lat="37.333496" lon="-122.052051">  </wpt>
<wpt lat="37.333474" lon="-122.052159">  </wpt>
<wpt lat="37.333452" lon="-122.052269">  </wpt>
<wpt lat="37.333431" lon="-122.052381">  </wpt>
<wpt lat="37.333410" lon="-122.052496">  </wpt>
<wpt lat="37.333390" lon="-122.052614">  </wpt>
<wpt lat="37.333372" lon="-122.052733">  </wpt>
<wpt lat="37.333357" lon="-122.052854">  </wpt>
<wpt lat="37.333345" lon="-122.052977">  </wpt>
<wpt lat="37.333335" lon="-122.053102">  </wpt>
<wpt lat="37.333327" lon="-122.053226">  </wpt>
<wpt lat="37.333321" lon="-122.053349">  </wpt>
<wpt lat="37.333316" lon="-122.053470">  </wpt>
<wpt lat="37.333314" lon="-122.053590">  </wpt>
<wpt lat="37.333314" lon="-122.053710">  </wpt>
<wpt lat="37.333316" lon="-122.053830">  </wpt>
<wpt lat="37.333321" lon="-122.053950">  </wpt>
<wpt lat="37.333329" lon="-122.054070">  </wpt>
<wpt lat="37.333339" lon="-122.054191">  </wpt>
<wpt lat="37.333351" lon="-122.054312">  </wpt>
<wpt lat="37.333366" lon="-122.054434">  </wpt>
<wpt lat="37.333384" lon="-122.054556">  </wpt>
<wpt lat="37.333403" lon="-122.054676">  </wpt>
<wpt lat="37.333424" lon="-122.054794">  </wpt>
<wpt lat="37.333447" lon="-122.054909">  </wpt>
<wpt lat="37.333472" lon="-122.055021">  </wpt>
<wpt lat="37.333497" lon="-122.055126">  </wpt>
<wpt lat="37.333521" lon="-122.055222">  </wpt>
<wpt lat="37.333544" lon="-122.055310">  </wpt>
<wpt lat="37.333566" lon="-122.055390">  </wpt>
<wpt lat="37.333593" lon="-122.055479">  </wpt>
<wpt lat="37.333622" lon="-122.055576">  </wpt>
<wpt lat="37.333656" lon="-122.055683">  </wpt>
<wpt lat="37.333694" lon="-122.055798">  </wpt>
<wpt lat="37.333733" lon="-122.055911">  </wpt>
<wpt lat="37.333774" lon="-122.056022">  </wpt>
<wpt lat="37.333818" lon="-122.056131">  </wpt>
<wpt lat="37.333863" lon="-122.056239">  </wpt>
<wpt lat="37.333908" lon="-122.056345">  </wpt>
<wpt lat="37.333954" lon="-122.056450">  </wpt>
<wpt lat="37.334001" lon="-122.056554">  </wpt>
<wpt lat="37.334049" lon="-122.056656">  </wpt>
<wpt lat="37.334095" lon="-122.056751">  </wpt>
<wpt lat="37.334140" lon="-122.056837">  </wpt>
<wpt lat="37.334184" lon="-122.056915">  </wpt>
<wpt lat="37.334226" lon="-122.056985">  </wpt>
<wpt lat="37.334270" lon="-122.057056">  </wpt>
<wpt lat="37.334315" lon="-122.057127">  </wpt>
<wpt lat="37.334361" lon="-122.057199">  </wpt>
<wpt lat="37.334409" lon="-122.057271">  </wpt>
<wpt lat="37.334463" lon="-122.057348">  </wpt>
<wpt lat="37.334522" lon="-122.057429">  </wpt>
<wpt lat="37.334589" lon="-122.057515">  </wpt>
<wpt lat="37.334661" lon="-122.057605">  </wpt>
<wpt lat="37.334732" lon="-122.057689">  </wpt>
<wpt lat="37.334801" lon="-122.057768">  </wpt>
<wpt lat="37.334868" lon="-122.057841">  </wpt>
<wpt lat="37.334933" lon="-122.057909">  </wpt>
<wpt lat="37.335001" lon="-122.057978">  </wpt>
<wpt lat="37.335074" lon="-122.058048">  </wpt>
<wpt lat="37.335150" lon="-122.058119">  </wpt>
<wpt lat="37.335230" lon="-122.058191">  </wpt>
<wpt lat="37.335305" lon="-122.058259">  </wpt>
<wpt lat="37.335375" lon="-122.058323">  </wpt>
<wpt lat="37.335440" lon="-122.058382">  </wpt>
<wpt lat="37.335500" lon="-122.058438">  </wpt>
<wpt lat="37.335575" lon="-122.058500">  </wpt>
<wpt lat="37.335665" lon="-122.058570">  </wpt>
<wpt lat="37.335770" lon="-122.058648">  </wpt>
<wpt lat="37.335890" lon="-122.058733">  </wpt>
<wpt lat="37.336007" lon="-122.058811">  </wpt>
<wpt lat="37.336123" lon="-122.058884">  </wpt>
<wpt lat="37.336235" lon="-122.058950">  </wpt>
<wpt lat="37.336345" lon="-122.059010">  </wpt>
<wpt lat="37.336452" lon="-122.059067">  </wpt>
<wpt lat="37.336556" lon="-122.059121">  </wpt>
<wpt lat="37.336656" lon="-122.059171">  </wpt>
<wpt lat="37.336754" lon="-122.059219">  </wpt>
<wpt lat="37.336850" lon="-122.059264">  </wpt>
<wpt lat="37.336945" lon="-122.059306">  </wpt>
<wpt lat="37.337039" lon="-122.059346">  </wpt>
<wpt lat="37.337131" lon="-122.059384">  </wpt>
<wpt lat="37.337219" lon="-122.059417">  </wpt>
<wpt lat="37.337303" lon="-122.059448">  </wpt>
<wpt lat="37.337382" lon="-122.059474">  </wpt>
<wpt lat="37.337457" lon="-122.059496">  </wpt>
<wpt lat="37.337537" lon="-122.059519">  </wpt>
<wpt lat="37.337623" lon="-122.059541">  </wpt>
<wpt lat="37.337713" lon="-122.059564">  </wpt>
<wpt lat="37.337807" lon="-122.059586">  </wpt>
<wpt lat="37.337899" lon="-122.059608">  </wpt>
<wpt lat="37.337986" lon="-122.059629">  </wpt>
<wpt lat="37.338070" lon="-122.059650">  </wpt>
<wpt lat="37.338150" lon="-122.059670">  </wpt>
<wpt lat="37.338229" lon="-122.059687">  </wpt>
<wpt lat="37.338308" lon="-122.059703">  </wpt>
<wpt lat="37.338386" lon="-122.059715">  </wpt>
<wpt lat="37.338464" lon="-122.059725">  </wpt>
<wpt lat="37.338554" lon="-122.059735">  </wpt>
<wpt lat="37.338656" lon="-122.059745">  </wpt>
<wpt lat="37.338771" lon="-122.059755">  </wpt>
<wpt lat="37.338899" lon="-122.059765">  </wpt>
<wpt lat="37.339032" lon="-122.059774">  </wpt>
<wpt lat="37.339171" lon="-122.059781">  </wpt>
<wpt lat="37.339315" lon="-122.059787">  </wpt>
<wpt lat="37.339465" lon="-122.059792">  </wpt>
<wpt lat="37.339602" lon="-122.059796">  </wpt>
<wpt lat="37.339726" lon="-122.059797">  </wpt>
<wpt lat="37.339836" lon="-122.059796">  </wpt>
<wpt lat="37.339934" lon="-122.059794">  </wpt>
<wpt lat="37.340026" lon="-122.059792">  </wpt>
<wpt lat="37.340114" lon="-122.059791">  </wpt>
<wpt lat="37.340196" lon="-122.059790">  </wpt>
<wpt lat="37.340274" lon="-122.059790">  </wpt>
<wpt lat="37.340373" lon="-122.059790">  </wpt>
<wpt lat="37.340492" lon="-122.059790">  </wpt>
<wpt lat="37.340634" lon="-122.059790">  </wpt>
<wpt lat="37.340796" lon="-122.059790">  </wpt>
<wpt lat="37.340993" lon="-122.059790">  </wpt>
<wpt lat="37.341223" lon="-122.059790">  </wpt>
<wpt lat="37.341486" lon="-122.059790">  </wpt>
<wpt lat="37.341784" lon="-122.059790">  </wpt>
<wpt lat="37.342036" lon="-122.059790">  </wpt>
<wpt lat="37.342242" lon="-122.059790">  </wpt>
<wpt lat="37.342403" lon="-122.059790">  </wpt>
<wpt lat="37.342517" lon="-122.059790">  </wpt>
<wpt lat="37.342639" lon="-122.059790">  </wpt>
<wpt lat="37.342768" lon="-122.059790">  </wpt>
<wpt lat="37.342904" lon="-122.059790">  </wpt>
<wpt lat="37.343046" lon="-122.059790">  </wpt>
<wpt lat="37.343182" lon="-122.059790">  </wpt>
<wpt lat="37.343311" lon="-122.059790">  </wpt>
<wpt lat="37.343432" lon="-122.059790">  </wpt>
<wpt lat="37.343547" lon="-122.059790">  </wpt>
<wpt lat="37.343656" lon="-122.059790">  </wpt>
<wpt lat="37.343759" lon="-122.059790">  </wpt>
<wpt lat="37.343855" lon="-122.059790">  </wpt>
<wpt lat="37.343945" lon="-122.059790">  </wpt>
<wpt lat="37.344101" lon="-122.059790">  </wpt>
<wpt lat="37.344324" lon="-122.059790">  </wpt>
<wpt lat="37.344613" lon="-122.059790">  </wpt>
<wpt lat="37.344968" lon="-122.059790">  </wpt>
<wpt lat="37.345251" lon="-122.059790">  </wpt>
<wpt lat="37.345464" lon="-122.059790">  </wpt>
<wpt lat="37.345605" lon="-122.059790">  </wpt>
<wpt lat="37.345675" lon="-122.059790">  </wpt>
<wpt lat="37.345885" lon="-122.059791">  </wpt>
<wpt lat="37.346235" lon="-122.059792">  </wpt>
<wpt lat="37.346725" lon="-122.059794">  </wpt>
<wpt lat="37.347355" lon="-122.059796">  </wpt>
<wpt lat="37.347846" lon="-122.059798">  </wpt>
<wpt lat="37.348199" lon="-122.059799">  </wpt>
<wpt lat="37.348413" lon="-122.059800">  </wpt>
<wpt lat="37.348487" lon="-122.059800">  </wpt>
<wpt lat="37.348574" lon="-122.059802">  </wpt>
<wpt lat="37.348671" lon="-122.059806">  </wpt>
<wpt lat="37.348780" lon="-122.059811">  </wpt>
<wpt lat="37.348900" lon="-122.059819">  </wpt>
<wpt lat="37.349007" lon="-122.059826">  </wpt>
<wpt lat="37.349101" lon="-122.059834">  </wpt>
<wpt lat="37.349181" lon="-122.059841">  </wpt>
<wpt lat="37.349249" lon="-122.059849">  </wpt>
<wpt lat="37.349326" lon="-122.059857">  </wpt>
<wpt lat="37.349412" lon="-122.059867">  </wpt>
<wpt lat="37.349508" lon="-122.059879">  </wpt>
<wpt lat="37.349612" lon="-122.059891">  </wpt>
<wpt lat="37.349715" lon="-122.059904">  </wpt>
<wpt lat="37.349815" lon="-122.059918">  </wpt>
<wpt lat="37.349912" lon="-122.059933">  </wpt>
<wpt lat="37.350007" lon="-122.059948">  </wpt>
<wpt lat="37.350098" lon="-122.059962">  </wpt>
<wpt lat="37.350184" lon="-122.059978">  </wpt>
<wpt lat="37.350266" lon="-122.059993">  </wpt>
<wpt lat="37.350344" lon="-122.060007">  </wpt>
<wpt lat="37.350419" lon="-122.060022">  </wpt>
<wpt lat="37.350491" lon="-122.060036">  </wpt>
<wpt lat="37.350561" lon="-122.060049">  </wpt>
<wpt lat="37.350629" lon="-122.060061">  </wpt>
<wpt lat="37.350697" lon="-122.060075">  </wpt>
<wpt lat="37.350766" lon="-122.060090">  </wpt>
<wpt lat="37.350835" lon="-122.060106">  </wpt>
<wpt lat="37.350905" lon="-122.060124">  </wpt>
<wpt lat="37.350977" lon="-122.060142">  </wpt>
<wpt lat="37.351051" lon="-122.060161">  </wpt>
<wpt lat="37.351126" lon="-122.060180">  </wpt>
<wpt lat="37.351204" lon="-122.060200">  </wpt>
<wpt lat="37.351284" lon="-122.060222">  </wpt>
<wpt lat="37.351366" lon="-122.060246">  </wpt>
<wpt lat="37.351451" lon="-122.060271">  </wpt>
<wpt lat="37.351539" lon="-122.060299">  </wpt>
<wpt lat="37.351629" lon="-122.060327">  </wpt>
<wpt lat="37.351721" lon="-122.060358">  </wpt>
<wpt lat="37.351816" lon="-122.060389">  </wpt>
<wpt lat="37.351914" lon="-122.060421">  </wpt>
<wpt lat="37.352004" lon="-122.060452">  </wpt>
<wpt lat="37.352088" lon="-122.060482">  </wpt>
<wpt lat="37.352165" lon="-122.060511">  </wpt>
<wpt lat="37.352235" lon="-122.060539">  </wpt>
<wpt lat="37.352314" lon="-122.060570">  </wpt>
<wpt lat="37.352403" lon="-122.060605">  </wpt>
<wpt lat="37.352501" lon="-122.060644">  </wpt>
<wpt lat="37.352609" lon="-122.060686">  </wpt>
<wpt lat="37.352712" lon="-122.060729">  </wpt>
<wpt lat="37.352811" lon="-122.060771">  </wpt>
<wpt lat="37.352905" lon="-122.060814">  </wpt>
<wpt lat="37.352995" lon="-122.060856">  </wpt>
<wpt lat="37.353082" lon="-122.060897">  </wpt>
<wpt lat="37.353168" lon="-122.060938">  </wpt>
<wpt lat="37.353250" lon="-122.060976">  </wpt>
<wpt lat="37.353330" lon="-122.061014">  </wpt>
<wpt lat="37.353412" lon="-122.061053">  </wpt>
<wpt lat="37.353496" lon="-122.061094">  </wpt>
<wpt lat="37.353581" lon="-122.061138">  </wpt>
<wpt lat="37.353669" lon="-122.061183">  </wpt>
<wpt lat="37.353782" lon="-122.061240">  </wpt>
<wpt lat="37.353921" lon="-122.061310">  </wpt>
<wpt lat="37.354085" lon="-122.061392">  </wpt>
<wpt lat="37.354275" lon="-122.061487">  </wpt>
<wpt lat="37.354433" lon="-122.061567">  </wpt>
<wpt lat="37.354559" lon="-122.061631">  </wpt>
<wpt lat="37.354654" lon="-122.061679">  </wpt>
<wpt lat="37.354716" lon="-122.061711">  </wpt>
<wpt lat="37.354803" lon="-122.061754">  </wpt>
<wpt lat="37.354914" lon="-122.061806">  </wpt>
<wpt lat="37.355050" lon="-122.061869">  </wpt>
<wpt lat="37.355210" lon="-122.061941">  </wpt>
<wpt lat="37.355354" lon="-122.062004">  </wpt>
<wpt lat="37.355481" lon="-122.062058">  </wpt>
<wpt lat="37.355593" lon="-122.062102">  </wpt>
<wpt lat="37.355687" lon="-122.062138">  </wpt>
<wpt lat="37.355781" lon="-122.062171">  </wpt>
<wpt lat="37.355874" lon="-122.062204">  </wpt>
<wpt lat="37.355965" lon="-122.062235">  </wpt>
<wpt lat="37.356055" lon="-122.062265">  </wpt>
<wpt lat="37.356146" lon="-122.062295">  </wpt>
<wpt lat="37.356237" lon="-122.062325">  </wpt>
<wpt lat="37.356329" lon="-122.062355">  </wpt>
<wpt lat="37.356421" lon="-122.062385">  </wpt>
<wpt lat="37.356510" lon="-122.062413">  </wpt>
<wpt lat="37.356595" lon="-122.062439">  </wpt>
<wpt lat="37.356676" lon="-122.062464">  </wpt>
<wpt lat="37.356754" lon="-122.062486">  </wpt>
<wpt lat="37.356836" lon="-122.062509">  </wpt>
<wpt lat="37.356922" lon="-122.062531">  </wpt>
<wpt lat="37.357013" lon="-122.062554">  </wpt>
<wpt lat="37.357108" lon="-122.062576">  </wpt>
<wpt lat="37.357212" lon="-122.062600">  </wpt>
<wpt lat="37.357326" lon="-122.062625">  </wpt>
<wpt lat="37.357449" lon="-122.062651">  </wpt>
<wpt lat="37.357581" lon="-122.062679">  </wpt>
<wpt lat="37.357698" lon="-122.062702">  </wpt>
<wpt lat="37.357799" lon="-122.062721">  </wpt>
<wpt lat="37.357885" lon="-122.062735">  </wpt>
<wpt lat="37.357955" lon="-122.062745">  </wpt>
<wpt lat="37.358035" lon="-122.062756">  </wpt>
<wpt lat="37.358125" lon="-122.062769">  </wpt>
<wpt lat="37.358225" lon="-122.062782">  </wpt>
<wpt lat="37.358335" lon="-122.062797">  </wpt>
<wpt lat="37.358447" lon="-122.062811">  </wpt>
<wpt lat="37.358563" lon="-122.062824">  </wpt>
<wpt lat="37.358680" lon="-122.062835">  </wpt>
<wpt lat="37.358800" lon="-122.062845">  </wpt>
<wpt lat="37.358907" lon="-122.062854">  </wpt>
<wpt lat="37.359001" lon="-122.062861">  </wpt>
<wpt lat="37.359081" lon="-122.062868">  </wpt>
<wpt lat="37.359149" lon="-122.062872">  </wpt>
<wpt lat="37.359226" lon="-122.062877">  </wpt>
<wpt lat="37.359314" lon="-122.062881">  </wpt>
<wpt lat="37.359411" lon="-122.062884">  </wpt>
<wpt lat="37.359519" lon="-122.062886">  </wpt>
<wpt lat="37.359635" lon="-122.062888">  </wpt>
<wpt lat="37.359760" lon="-122.062888">  </wpt>
<wpt lat="37.359894" lon="-122.062886">  </wpt>
<wpt lat="37.360036" lon="-122.062884">  </wpt>
<wpt lat="37.360164" lon="-122.062881">  </wpt>
<wpt lat="37.360278" lon="-122.062879">  </wpt>
<wpt lat="37.360377" lon="-122.062876">  </wpt>
<wpt lat="37.360463" lon="-122.062874">  </wpt>
<wpt lat="37.360553" lon="-122.062871">  </wpt>
<wpt lat="37.360649" lon="-122.062869">  </wpt>
<wpt lat="37.360751" lon="-122.062866">  </wpt>
<wpt lat="37.360859" lon="-122.062864">  </wpt>
<wpt lat="37.360971" lon="-122.062861">  </wpt>
<wpt lat="37.361089" lon="-122.062859">  </wpt>
<wpt lat="37.361211" lon="-122.062856">  </wpt>
<wpt lat="37.361339" lon="-122.062854">  </wpt>
<wpt lat="37.361558" lon="-122.062849">  </wpt>
<wpt lat="37.361868" lon="-122.062841">  </wpt>
<wpt lat="37.362269" lon="-122.062831">  </wpt>
<wpt lat="37.362761" lon="-122.062819">  </wpt>
<wpt lat="37.363160" lon="-122.062810">  </wpt>
<wpt lat="37.363465" lon="-122.062805">  </wpt>
<wpt lat="37.363676" lon="-122.062804">  </wpt>
<wpt lat="37.363794" lon="-122.062806">  </wpt>
<wpt lat="37.363906" lon="-122.062809">  </wpt>
<wpt lat="37.364014" lon="-122.062813">  </wpt>
<wpt lat="37.364116" lon="-122.062817">  </wpt>
<wpt lat="37.364214" lon="-122.062823">  </wpt>
<wpt lat="37.364314" lon="-122.062830">  </wpt>
<wpt lat="37.364416" lon="-122.062840">  </wpt>
<wpt lat="37.364521" lon="-122.062853">  </wpt>
<wpt lat="37.364629" lon="-122.062867">  </wpt>
<wpt lat="37.364729" lon="-122.062883">  </wpt>
<wpt lat="37.364821" lon="-122.062899">  </wpt>
<wpt lat="37.364906" lon="-122.062916">  </wpt>
<wpt lat="37.364984" lon="-122.062934">  </wpt>
<wpt lat="37.365062" lon="-122.062952">  </wpt>
<wpt lat="37.365141" lon="-122.062973">  </wpt>
<wpt lat="37.365220" lon="-122.062994">  </wpt>
<wpt lat="37.365300" lon="-122.063016">  </wpt>
<wpt lat="37.365384" lon="-122.063041">  </wpt>
<wpt lat="37.365473" lon="-122.063069">  </wpt>
<wpt lat="37.365566" lon="-122.063099">  </wpt>
<wpt lat="37.365664" lon="-122.063131">  </wpt>
<wpt lat="37.365757" lon="-122.063164">  </wpt>
<wpt lat="37.365846" lon="-122.063198">  </wpt>
<wpt lat="37.365930" lon="-122.063233">  </wpt>
<wpt lat="37.366010" lon="-122.063268">  </wpt>
<wpt lat="37.366087" lon="-122.063302">  </wpt>
<wpt lat="37.366161" lon="-122.063336">  </wpt>
<wpt lat="37.366231" lon="-122.063369">  </wpt>
<wpt lat="37.366299" lon="-122.063401">  </wpt>
<wpt lat="37.366365" lon="-122.063434">  </wpt>
<wpt lat="37.366430" lon="-122.063466">  </wpt>
<wpt lat="37.366494" lon="-122.063499">  </wpt>
<wpt lat="37.366556" lon="-122.063531">  </wpt>
<wpt lat="37.366626" lon="-122.063570">  </wpt>
<wpt lat="37.366704" lon="-122.063615">  </wpt>
<wpt lat="37.366789" lon="-122.063666">  </wpt>
<wpt lat="37.366881" lon="-122.063724">  </wpt>
<wpt lat="37.366966" lon="-122.063776">  </wpt>
<wpt lat="37.367044" lon="-122.063824">  </wpt>
<wpt lat="37.367114" lon="-122.063866">  </wpt>
<wpt lat="37.367176" lon="-122.063904">  </wpt>
<wpt lat="37.367291" lon="-122.063972">  </wpt>
<wpt lat="37.367457" lon="-122.064072">  </wpt>
<wpt lat="37.367675" lon="-122.064204">  </wpt>
<wpt lat="37.367945" lon="-122.064366">  </wpt>
<wpt lat="37.368184" lon="-122.064511">  </wpt>
<wpt lat="37.368391" lon="-122.064637">  </wpt>
<wpt lat="37.368568" lon="-122.064745">  </wpt>
<wpt lat="37.368712" lon="-122.064835">  </wpt>
<wpt lat="37.368843" lon="-122.064916">  </wpt>
<wpt lat="37.368959" lon="-122.064987">  </wpt>
<wpt lat="37.369061" lon="-122.065049">  </wpt>
<wpt lat="37.369149" lon="-122.065101">  </wpt>
<wpt lat="37.369230" lon="-122.065150">  </wpt>
<wpt lat="37.369305" lon="-122.065195">  </wpt>
<wpt lat="37.369374" lon="-122.065236">  </wpt>
<wpt lat="37.369436" lon="-122.065274">  </wpt>
<wpt lat="37.369506" lon="-122.065316">  </wpt>
<wpt lat="37.369584" lon="-122.065364">  </wpt>
<wpt lat="37.369669" lon="-122.065416">  </wpt>
<wpt lat="37.369761" lon="-122.065474">  </wpt>
<wpt lat="37.369854" lon="-122.065531">  </wpt>
<wpt lat="37.369946" lon="-122.065587">  </wpt>
<wpt lat="37.370039" lon="-122.065643">  </wpt>
<wpt lat="37.370131" lon="-122.065697">  </wpt>
<wpt lat="37.370224" lon="-122.065753">  </wpt>
<wpt lat="37.370316" lon="-122.065807">  </wpt>
<wpt lat="37.370409" lon="-122.065862">  </wpt>
<wpt lat="37.370501" lon="-122.065917">  </wpt>
<wpt lat="37.370598" lon="-122.065975">  </wpt>
<wpt lat="37.370698" lon="-122.066035">  </wpt>
<wpt lat="37.370801" lon="-122.066097">  </wpt>
<wpt lat="37.370909" lon="-122.066162">  </wpt>
<wpt lat="37.371016" lon="-122.066227">  </wpt>
<wpt lat="37.371122" lon="-122.066293">  </wpt>
<wpt lat="37.371228" lon="-122.066358">  </wpt>
<wpt lat="37.371333" lon="-122.066423">  </wpt>
<wpt lat="37.371434" lon="-122.066484">  </wpt>
<wpt lat="37.371531" lon="-122.066543">  </wpt>
<wpt lat="37.371625" lon="-122.066599">  </wpt>
<wpt lat="37.371715" lon="-122.066651">  </wpt>
<wpt lat="37.371798" lon="-122.066701">  </wpt>
<wpt lat="37.371874" lon="-122.066747">  </wpt>
<wpt lat="37.371944" lon="-122.066790">  </wpt>
<wpt lat="37.372006" lon="-122.066830">  </wpt>
<wpt lat="37.372069" lon="-122.066869">  </wpt>
<wpt lat="37.372131" lon="-122.066908">  </wpt>
<wpt lat="37.372194" lon="-122.066946">  </wpt>
<wpt lat="37.372256" lon="-122.066984">  </wpt>
<wpt lat="37.372322" lon="-122.067023">  </wpt>
<wpt lat="37.372391" lon="-122.067063">  </wpt>
<wpt lat="37.372462" lon="-122.067104">  </wpt>
<wpt lat="37.372537" lon="-122.067146">  </wpt>
<wpt lat="37.372611" lon="-122.067188">  </wpt>
<wpt lat="37.372682" lon="-122.067228">  </wpt>
<wpt lat="37.372751" lon="-122.067266">  </wpt>
<wpt lat="37.372819" lon="-122.067304">  </wpt>
<wpt lat="37.372886" lon="-122.067339">  </wpt>
<wpt lat="37.372954" lon="-122.067373">  </wpt>
<wpt lat="37.373021" lon="-122.067405">  </wpt>
<wpt lat="37.373089" lon="-122.067435">  </wpt>
<wpt lat="37.373156" lon="-122.067464">  </wpt>
<wpt lat="37.373224" lon="-122.067493">  </wpt>
<wpt lat="37.373291" lon="-122.067521">  </wpt>
<wpt lat="37.373359" lon="-122.067549">  </wpt>
<wpt lat="37.373428" lon="-122.067575">  </wpt>
<wpt lat="37.373497" lon="-122.067600">  </wpt>
<wpt lat="37.373569" lon="-122.067624">  </wpt>
<wpt lat="37.373641" lon="-122.067646">  </wpt>
<wpt lat="37.373712" lon="-122.067667">  </wpt>
<wpt lat="37.373783" lon="-122.067686">  </wpt>
<wpt lat="37.373851" lon="-122.067702">  </wpt>
<wpt lat="37.373919" lon="-122.067718">  </wpt>
<wpt lat="37.373994" lon="-122.067733">  </wpt>
<wpt lat="37.374078" lon="-122.067747">  </wpt>
<wpt lat="37.374170" lon="-122.067763">  </wpt>
<wpt lat="37.374270" lon="-122.067778">  </wpt>
<wpt lat="37.374363" lon="-122.067791">  </wpt>
<wpt lat="37.374449" lon="-122.067802">  </wpt>
<wpt lat="37.374529" lon="-122.067811">  </wpt>
<wpt lat="37.374601" lon="-122.067819">  </wpt>
<wpt lat="37.374674" lon="-122.067824">  </wpt>
<wpt lat="37.374748" lon="-122.067828">  </wpt>
<wpt lat="37.374823" lon="-122.067830">  </wpt>
<wpt lat="37.374898" lon="-122.067830">  </wpt>
<wpt lat="37.374971" lon="-122.067829">  </wpt>
<wpt lat="37.375042" lon="-122.067826">  </wpt>
<wpt lat="37.375111" lon="-122.067823">  </wpt>
<wpt lat="37.375179" lon="-122.067817">  </wpt>
<wpt lat="37.375252" lon="-122.067811">  </wpt>
<wpt lat="37.375331" lon="-122.067804">  </wpt>
<wpt lat="37.375415" lon="-122.067795">  </wpt>
<wpt lat="37.375505" lon="-122.067785">  </wpt>
<wpt lat="37.375597" lon="-122.067774">  </wpt>
<wpt lat="37.375691" lon="-122.067763">  </wpt>
<wpt lat="37.375786" lon="-122.067751">  </wpt>
<wpt lat="37.375884" lon="-122.067739">  </wpt>
<wpt lat="37.375989" lon="-122.067726">  </wpt>
<wpt lat="37.376103" lon="-122.067712">  </wpt>
<wpt lat="37.376225" lon="-122.067697">  </wpt>
<wpt lat="37.376355" lon="-122.067683">  </wpt>
<wpt lat="37.376477" lon="-122.067668">  </wpt>
<wpt lat="37.376591" lon="-122.067654">  </wpt>
<wpt lat="37.376696" lon="-122.067641">  </wpt>
<wpt lat="37.376794" lon="-122.067629">  </wpt>
<wpt lat="37.376892" lon="-122.067617">  </wpt>
<wpt lat="37.376991" lon="-122.067606">  </wpt>
<wpt lat="37.377090" lon="-122.067595">  </wpt>
<wpt lat="37.377190" lon="-122.067585">  </wpt>
<wpt lat="37.377295" lon="-122.067577">  </wpt>
<wpt lat="37.377405" lon="-122.067571">  </wpt>
<wpt lat="37.377520" lon="-122.067566">  </wpt>
<wpt lat="37.377640" lon="-122.067564">  </wpt>
<wpt lat="37.377750" lon="-122.067562">  </wpt>
<wpt lat="37.377850" lon="-122.067562">  </wpt>
<wpt lat="37.377940" lon="-122.067564">  </wpt>
<wpt lat="37.378020" lon="-122.067566">  </wpt>
<wpt lat="37.378097" lon="-122.067570">  </wpt>
<wpt lat="37.378171" lon="-122.067575">  </wpt>
<wpt lat="37.378241" lon="-122.067581">  </wpt>
<wpt lat="37.378309" lon="-122.067589">  </wpt>
<wpt lat="37.378376" lon="-122.067596">  </wpt>
<wpt lat="37.378444" lon="-122.067604">  </wpt>
<wpt lat="37.378511" lon="-122.067611">  </wpt>
<wpt lat="37.378579" lon="-122.067619">  </wpt>
<wpt lat="37.378647" lon="-122.067626">  </wpt>
<wpt lat="37.378718" lon="-122.067634">  </wpt>
<wpt lat="37.378789" lon="-122.067641">  </wpt>
<wpt lat="37.378861" lon="-122.067649">  </wpt>
<wpt lat="37.378953" lon="-122.067658">  </wpt>
<wpt lat="37.379062" lon="-122.067669">  </wpt>
<wpt lat="37.379191" lon="-122.067683">  </wpt>
<wpt lat="37.379339" lon="-122.067697">  </wpt>
<wpt lat="37.379471" lon="-122.067711">  </wpt>
<wpt lat="37.379587" lon="-122.067724">  </wpt>
<wpt lat="37.379687" lon="-122.067735">  </wpt>
<wpt lat="37.379773" lon="-122.067745">  </wpt>
<wpt lat="37.379867" lon="-122.067756">  </wpt>
<wpt lat="37.379971" lon="-122.067767">  </wpt>
<wpt lat="37.380084" lon="-122.067779">  </wpt>
<wpt lat="37.380206" lon="-122.067791">  </wpt>
<wpt lat="37.380341" lon="-122.067806">  </wpt>
<wpt lat="37.380487" lon="-122.067822">  </wpt>
<wpt lat="37.380645" lon="-122.067840">  </wpt>
<wpt lat="37.380815" lon="-122.067860">  </wpt>
<wpt lat="37.380966" lon="-122.067871">  </wpt>
<wpt lat="37.381099" lon="-122.067874">  </wpt>
<wpt lat="37.381213" lon="-122.067868">  </wpt>
<wpt lat="37.381307" lon="-122.067853">  </wpt>
<wpt lat="37.381397" lon="-122.067842">  </wpt>
</gpx>
